ONEWEB-0027             
1 45432U 20020J   23326.56984730  .00000054  00000+0  10625-3 0  9995
2 45432  87.9226 192.2426 0001692  87.8517 272.2808 13.17649602182889
ONEWEB-0064             
1 45433U 20020K   23326.19276592  .00000389  00000+0  10629-2 0  9999
2 45433  87.8991 207.4463 0001520  88.8805 271.2497 13.11419463179747
ONEWEB-0018             
1 45434U 20020L   23326.22523707  .00000006  00000+0 -18573-4 0  9992
2 45434  87.8998 207.4325 0001447  71.4410 288.6875 13.11414623179699
ONEWEB-0083             
1 45435U 20020M   23326.21388001  .00000439  00000+0  12038-2 0  9995
2 45435  87.8988 207.4165 0001609  78.6891 281.4417 13.11414577179739
ONEWEB-0095             
1 45436U 20020N   23326.20589592  .00000589  00000+0  16268-2 0  9998
2 45436  87.8996 207.4557 0001948  77.1109 283.0236 13.11418020179730
ONEWEB-0092             
1 45437U 20020P   23326.17327649 -.00000416  00000+0 -12093-2 0  9991
2 45437  87.9000 207.4413 0001961  77.2505 282.8842 13.11415514179842
ONEWEB-0085             
1 45438U 20020Q   23326.58886567  .00000464  00000+0  12746-2 0  9992
2 45438  87.8990 207.3650 0001348  76.7532 283.3746 13.11416481179781
ONEWEB-0096             
1 45439U 20020R   23326.21551289  .00000358  00000+0  97378-3 0  9990
2 45439  87.8989 207.4124 0001379  68.1204 292.0070 13.11412605179727
